STARLINK-3229           
1 49751U 21115AD  26166.01488617  .00010444  00000+0  67317-3 0  9991
2 49751  53.1615  72.0513 0001829 109.0716 251.0474 15.08845609250232
STARLINK-3209           
1 49752U 21115AE  26165.98366909 -.00000553  00000+0 -16618-4 0  9997
2 49752  53.1614  62.2783 0001512  93.3542 266.7622 15.08835115250366
STARLINK-3200           
1 49753U 21115AF  26166.02963343 -.00000263  00000+0  15789-5 0  9995
2 49753  53.1601  72.0624 0001358  82.7844 277.3302 15.08830346250231
STARLINK-3193           
1 49754U 21115AG  26165.98640747 -.00000835  00000+0 -34400-4 0  9996
2 49754  53.1605  62.3651 0001385  83.5450 276.5699 15.08829739250368
STARLINK-3210           
1 49755U 21115AH  26166.04163784  .00000094  00000+0  24024-4 0  9992
2 49755  53.1592  72.0575 0001485  83.4545 276.6615 15.08828013250231
STARLINK-3207           
1 49756U 21115AJ  26165.92751146 -.00000634  00000+0 -21772-4 0  9993
2 49756  53.1590  62.5241 0001303  76.5702 283.5434 15.08831869250353
STARLINK-3197           
1 49757U 21115AK  26166.18606949  .00000317  00000+0  38022-4 0  9995
2 49757  53.1596  61.3703 0001282  91.7394 268.3744 15.08831004250392
STARLINK-3194           
1 49758U 21115AL  26166.00111317 -.00000463  00000+0 -10973-4 0  9996
2 49758  53.1598  62.1910 0001236  90.2826 269.8308 15.08827849250368
STARLINK-3204           
1 49759U 21115AM  26165.99007405 -.00000521  00000+0 -14631-4 0  9996
2 49759  53.1601  62.2420 0001285  84.2005 275.9133 15.08829185250366
STARLINK-3199           
1 49760U 21115AN  26165.94223054  .00000229  00000+0  32495-4 0  9994
2 49760  53.1596  62.4553 0001233  89.3023 270.8109 15.08833266250361
STARLINK-3203           
1 49761U 21115AP  26165.99743107 -.00000242  00000+0  29220-5 0  9995
2 49761  53.1599  62.2061 0001462  92.4268 267.6891 15.08832378250362
STARLINK-3195           
1 49762U 21115AQ  26166.01583386  .00000268  00000+0  34925-4 0  9995
2 49762  53.1592  62.1251 0001333  88.5045 271.6099 15.08828429250370
STARLINK-3198           
1 49763U 21115AR  26166.00479174 -.00000661  00000+0 -23453-4 0  9997
2 49763  53.1603  62.1706 0001321  79.1764 280.9377 15.08828088250373
STARLINK-3227           
1 49765U 21115AT  26166.33335648 -.00003129  00000+0 -15562-3 0  9995
2 49765  53.1594  60.6685 0000796 159.1606 162.6456 15.13630158  5706
STARLINK-3190           
1 49766U 21115AU  26166.02783237  .00000998  00000+0  80784-4 0  9991
2 49766  53.1597  62.0797 0001602  92.2573 267.8602 15.08844012250373
STARLINK-3192           
1 49767U 21115AV  26166.01951560 -.00004581  00000+0 -26989-3 0  9997
2 49767  53.1595  62.1083 0001438  91.1378 268.9778 15.08845028250373
STARLINK-3196           
1 49768U 21115AW  26165.96799446  .00000408  00000+0  43727-4 0  9996
2 49768  53.1600  62.3397 0001262  86.5938 273.5198 15.08830499250369
STARLINK-3208           
1 49769U 21115AX  26165.96896657 -.00002826  00000+0 -15961-3 0  9995
2 49769  53.1603  62.3847 0001518  88.7079 271.4086 15.08817038250364
STARLINK-3191           
1 49770U 21115AY  26165.97631473  .00000250  00000+0  33816-4 0  9998
2 49770  53.1599  62.3512 0001423  90.8476 269.2678 15.08833528251487
STARLINK-3201           
1 49771U 21115AZ  26165.97535051  .00000983  00000+0  79897-4 0  9996
2 49771  53.1605  62.3040 0001613 101.1894 258.9279 15.08833466250362
GLOBAL-12               
1 49772U 21115BA  26166.27223020  .00028202  00000+0  44230-3 0  9997
2 49772  53.1963  53.7485 0003208  64.8968 295.2376 15.53494495255605
GLOBAL-13               
1 49773U 21115BB  26165.98643505  .00019246  00000+0  39634-3 0  9999
2 49773  53.1985  65.0498 0003908 104.7375 255.4067 15.45969997255423
GSAT0223 (GALILEO 27)   
1 49809U 21116A   26162.13215269 -.00000065  00000+0  00000+0 0  9997
2 49809  57.1623 341.8389 0001404 187.4451 176.2704  1.70475860 28084
GSAT0224 (GALILEO 28)   
1 49810U 21116B   26165.45828332 -.00000078  00000+0  00000+0 0  9992
2 49810  57.1622 341.7473 0001118 160.2800 197.3797  1.70475791 28154
STPSAT-6                
1 49817U 21118A   26166.23694545 -.00000042  00000+0  00000+0 0  9996
2 49817   0.3161  85.4066 0001486 246.0259 265.7442  1.00273036 16557
GLOBAL-17               
1 49949U 21120A   26165.96540690  .00025798  00000+0  41712-3 0  9998
2 49949  41.9959  62.5329 0015455 242.6217 117.3055 15.52154913254554
GLOBAL-16               
1 49950U 21120B   26165.97586152  .00023856  00000+0  41625-3 0  9990
2 49950  41.9956  66.1597 0013359 234.7507 125.2087 15.50087879254507
IXPE                    
1 49954U 21121A   26166.33335648  .00008684  00000+0  46036-3 0  9991
2 49954   0.2318 331.8952 0007257  47.1972 239.9045 15.10236983  5891
SHIJIAN-6 05A (SJ-6 05A)
1 49961U 21122A   26166.19064806  .00002159  00000+0  18055-3 0  9990
2 49961  97.4079 134.8382 0003389 106.7124 253.4472 14.99470255248456
SHIJIAN-6 05B (SJ-6 05B)
1 49962U 21122B   26165.73028442  .00002440  00000+0  14613-3 0  9995
2 49962  97.3782 146.4417 0003111  73.8537 286.3036 15.11909827249370
