OBJECT_NAME,OBJECT_ID,EPOCH,MEAN_MOTION,ECCENTRICITY,INCLINATION,RA_OF_ASC_NODE,ARG_OF_PERICENTER,MEAN_ANOMALY,EPHEMERIS_TYPE,CLASSIFICATION_TYPE,NORAD_CAT_ID,ELEMENT_SET_NO,REV_AT_EPOCH,BSTAR,MEAN_MOTION_DOT,MEAN_MOTION_DDOT
STARLINK-3229,2021-115AD,2026-06-15T00:21:26.165088,15.08845609,.00018294,53.1615,72.0513,109.0716,251.0474,0,U,49751,999,25023,.67316755E-3,.10444E-3,0
STARLINK-3209,2021-115AE,2026-06-14T23:36:29.009376,15.08835115,.00015123,53.1614,62.2783,93.3542,266.7622,0,U,49752,999,25036,-.16618147E-4,-.553E-5,0
STARLINK-3200,2021-115AF,2026-06-15T00:42:40.328352,15.08830346,.00013585,53.1601,72.0624,82.7844,277.3302,0,U,49753,999,25023,.1578919E-5,-.263E-5,0
STARLINK-3193,2021-115AG,2026-06-14T23:40:25.605408,15.08829739,.00013854,53.1605,62.3651,83.5450,276.5699,0,U,49754,999,25036,-.34399943E-4,-.835E-5,0
STARLINK-3210,2021-115AH,2026-06-15T00:59:57.509376,15.08828013,.0001485,53.1592,72.0575,83.4545,276.6615,0,U,49755,999,25023,.24023922E-4,.94E-6,0
STARLINK-3207,2021-115AJ,2026-06-14T22:15:36.990144,15.08831869,.0001303,53.1590,62.5241,76.5702,283.5434,0,U,49756,999,25035,-.21772E-4,-.634E-5,0
STARLINK-3197,2021-115AK,2026-06-15T04:27:56.403936,15.08831004,.00012824,53.1596,61.3703,91.7394,268.3744,0,U,49757,999,25039,.38022366E-4,.317E-5,0
STARLINK-3194,2021-115AL,2026-06-15T00:01:36.177888,15.08827849,.00012361,53.1598,62.1910,90.2826,269.8308,0,U,49758,999,25036,-.1097285E-4,-.463E-5,0
STARLINK-3204,2021-115AM,2026-06-14T23:45:42.397920,15.08829185,.00012855,53.1601,62.2420,84.2005,275.9133,0,U,49759,999,25036,-.14631425E-4,-.521E-5,0
STARLINK-3199,2021-115AN,2026-06-14T22:36:48.718656,15.08833266,.0001233,53.1596,62.4553,89.3023,270.8109,0,U,49760,999,25036,.32495E-4,.229E-5,0
STARLINK-3203,2021-115AP,2026-06-14T23:56:18.044448,15.08832378,.00014626,53.1599,62.2061,92.4268,267.6891,0,U,49761,999,25036,.2921954E-5,-.242E-5,0
STARLINK-3195,2021-115AQ,2026-06-15T00:22:48.045504,15.08828429,.00013339,53.1592,62.1251,88.5045,271.6099,0,U,49762,999,25037,.34924714E-4,.268E-5,0
STARLINK-3198,2021-115AR,2026-06-15T00:06:54.006336,15.08828088,.00013216,53.1603,62.1706,79.1764,280.9377,0,U,49763,999,25037,-.23452926E-4,-.661E-5,0
STARLINK-3227,2021-115AT,2026-06-15T08:00:01.999872,15.13630158,.00007966,53.1594,60.6685,159.1606,162.6456,0,U,49765,999,570,-.15561824E-3,-.3129E-4,0
STARLINK-3190,2021-115AU,2026-06-15T00:40:04.716768,15.08844012,.00016029,53.1597,62.0797,92.2573,267.8602,0,U,49766,999,25037,.80783795E-4,.998E-5,0
STARLINK-3192,2021-115AV,2026-06-15T00:28:06.147840,15.08845028,.00014381,53.1595,62.1083,91.1378,268.9778,0,U,49767,999,25037,-.26988587E-3,-.4581E-4,0
STARLINK-3196,2021-115AW,2026-06-14T23:13:54.721344,15.08830499,.00012629,53.1600,62.3397,86.5938,273.5198,0,U,49768,999,25036,.4372702E-4,.408E-5,0
STARLINK-3208,2021-115AX,2026-06-14T23:15:18.711648,15.08817038,.0001518,53.1603,62.3847,88.7079,271.4086,0,U,49769,999,25036,-.15961E-3,-.2826E-4,0
STARLINK-3191,2021-115AY,2026-06-14T23:25:53.592672,15.08833528,.00014232,53.1599,62.3512,90.8476,269.2678,0,U,49770,999,25148,.33816207E-4,.25E-5,0
STARLINK-3201,2021-115AZ,2026-06-14T23:24:30.284064,15.08833466,.00016136,53.1605,62.3040,101.1894,258.9279,0,U,49771,999,25036,.79896813E-4,.983E-5,0
GLOBAL-12,2021-115BA,2026-06-15T06:32:00.689280,15.53494495,.00032085,53.1963,53.7485,64.8968,295.2376,0,U,49772,999,25560,.44230384E-3,.28202E-3,0
GLOBAL-13,2021-115BB,2026-06-14T23:40:27.988320,15.45969997,.00039081,53.1985,65.0498,104.7375,255.4067,0,U,49773,999,25542,.39633876E-3,.19246E-3,0
GSAT0223 (GALILEO 27),2021-116A,2026-06-11T03:10:17.992416,1.70475860,.00014044,57.1623,341.8389,187.4451,176.2704,0,U,49809,999,2808,0,-.65E-6,0
GSAT0224 (GALILEO 28),2021-116B,2026-06-14T10:59:55.678848,1.70475791,.00011186,57.1622,341.7473,160.2800,197.3797,0,U,49810,999,2815,0,-.78E-6,0
STPSAT-6,2021-118A,2026-06-15T05:41:12.086880,1.00273036,.00014861,0.3161,85.4066,246.0259,265.7442,0,U,49817,999,1655,0,-.42E-6,0
GLOBAL-17,2021-120A,2026-06-14T23:10:11.156160,15.52154913,.00154557,41.9959,62.5329,242.6217,117.3055,0,U,49949,999,25455,.41711516E-3,.25798E-3,0
GLOBAL-16,2021-120B,2026-06-14T23:25:14.435328,15.50087879,.00133595,41.9956,66.1597,234.7507,125.2087,0,U,49950,999,25450,.4162525E-3,.23856E-3,0
IXPE,2021-121A,2026-06-15T08:00:01.999872,15.10236983,.00072576,0.2318,331.8952,47.1972,239.9045,0,U,49954,999,589,.46036426E-3,.8684E-4,0
SHIJIAN-6 05A (SJ-6 05A),2021-122A,2026-06-15T04:34:31.992384,14.99470255,.0003389,97.4079,134.8382,106.7124,253.4472,0,U,49961,999,24845,.18055E-3,.2159E-4,0
SHIJIAN-6 05B (SJ-6 05B),2021-122B,2026-06-14T17:31:36.573888,15.11909827,.0003111,97.3782,146.4417,73.8537,286.3036,0,U,49962,999,24937,.14613E-3,.244E-4,0
